OBJECT B                
1 51825U 22019B   25354.92661824  .00028261  00000+0  45324-3 0  9991
2 51825  97.3678  74.7583 0008795  65.9494 294.2679 15.52996674211910
